[{"OBJECT_NAME":"STARLINK-1564","OBJECT_ID":"2020-055AH","EPOCH":"2026-03-09T08:33:11.590560","MEAN_MOTION":15.3019367,"ECCENTRICITY":0.00010612,"INCLINATION":53.1603,"RA_OF_ASC_NODE":115.9195,"ARG_OF_PERICENTER":70.7745,"MEAN_ANOMALY":289.3371,"EPHEMERIS_TYPE":0,"CLASSIFICATION_TYPE":"U","NORAD_CAT_ID":46058,"ELEMENT_SET_NO":999,"REV_AT_EPOCH":30901,"BSTAR":4.5125857e-5,"MEAN_MOTION_DOT":9.77e-6,"MEAN_MOTION_DDOT":0},{"OBJECT_NAME":"AIST-2 (RS43)","OBJECT_ID":"2013-015D","EPOCH":"2026-03-09T22:52:25.813056","MEAN_MOTION":15.25079544,"ECCENTRICITY":0.00239979,"INCLINATION":64.8687,"RA_OF_ASC_NODE":221.5348,"ARG_OF_PERICENTER":248.8384,"MEAN_ANOMALY":111.0181,"EPHEMERIS_TYPE":0,"CLASSIFICATION_TYPE":"U","NORAD_CAT_ID":39133,"ELEMENT_SET_NO":999,"REV_AT_EPOCH":70876,"BSTAR":0.00037899099,"MEAN_MOTION_DOT":9.402e-5,"MEAN_MOTION_DDOT":0}]
